K08V00C 26.9   0.15 K102D 344.77952  240.52819  218.41408    5.72190  0.1724008  0.83021907   1.1211772  6 MPO147609    14   1    2 days 0.30 M-v 3Eh MPC        2003          2008 VC            20081103
K08V00D 24.2   0.15 K102D  11.12661  299.77474   37.44410   31.77400  0.2448775  0.71014913   1.2442367  8 MPO147609    23   1    3 days 0.53 M-v 3Eh MPC        2003          2008 VD            20081104
K08V00E 22.2   0.15 K102D 113.22561  128.06584  228.86312    7.63064  0.6356006  0.22258048   2.6965677  5 MPO149145    51   1   31 days 0.41 M-v 3Eh MPC        2003          2008 VE            20081202
K08V00F 19.4   0.15 K102D 347.04972    3.23478  234.45100   26.19758  0.3257925  1.14283678   0.9060383  4 MPO162103   115   2 2008-2009 0.34 M-v 3Eh MPC        0002          2008 VF            20090916
K08V00H 20.0   0.15 K102D 191.42573   90.61621  201.97015    5.26112  0.4871846  0.30376797   2.1916678  9 MPO147609    24   1    6 days 0.42 M-v 38h MPC        2004          2008 VH            20081108
K08V00J 22.7   0.15 K102D 250.69478   83.04592  227.55999   25.47475  0.4593474  0.45052788   1.6852135  9 MPO147609    16   1    7 days 0.61 M-v 3Eh MPC        2003          2008 VJ            20081109
K08V00K 23.4   0.15 K102D 255.43096  121.38123  218.46758   29.13871  0.4502230  0.49665093   1.5791930  7 MPO149145    18   1    3 days 0.55 M-v 3Eh MPC        2003          2008 VK            20081105
K08V00M 30.2   0.15 K102D 251.81890   62.61020   41.86449    6.44484  0.3972279  0.60009086   1.3920603  9 MPO147609    17   1    0 days 1.30 M-v 3Eh MPC        2003          2008 VM            20081103
K08V00N 16.9   0.15 K102D 108.81041  277.13371   60.05153   12.91660  0.6452526  0.18530809   3.0470048  3 MPO151104    72   2 1992-2008 0.47 M-v 3Eh MPC        0004          2008 VN            20081211
K08V00V 20.5   0.15 K102D  94.73292  156.40694  234.65534   17.27846  0.5210059  0.19547074   2.9404573  7 MPO149145    36   1   21 days 0.24 M-v 38h MPC        2006          2008 VV            20081124
K08V01B 20.6   0.15 K102D 206.17874  136.84885   50.41675   10.31643  0.2752196  0.68236307   1.2777887  3 MPO159137    72   1  234 days 0.38 M-v 3Eh MPC        A003          2008 VB1           20090625
K08V03U 23.4   0.15 K102D 123.87012  144.48879  224.02007    3.93243  0.6197872  0.25150140   2.4856641  6 MPO149146    80   1   27 days 0.32 M-v 3Eh MPC        2003          2008 VU3           20081129
K08V03Y 24.8   0.15 K102D  27.28373  301.51166  220.27348   12.37699  0.3484204  1.00156259   0.9893516  7 MPO149146    19   1    5 days 0.22 M-v 3Eh MPC        2002          2008 VY3           20081108
K08V03Z 24.4   0.15 K102D 161.46622  237.52626  228.95835    3.53011  0.5254143  0.39052432   1.8536909  7 MPO149146    66   1   14 days 0.54 M-v 3Eh MPC        2003          2008 VZ3           20081120
K08V04A 24.9   0.15 K102D 304.60145  197.88681  220.83201   11.41414  0.2192691  0.67630285   1.2854107  6 MPO149146    28   1    2 days 0.40 M-v 3Eh MPC        2004          2008 VA4           20081108
K08V04B 28.2   0.15 K102D 136.88359  207.76183  153.60757    0.03647  0.6127773  0.27629671   2.3346346  6 MPO147610    12   1    0 days 0.38 M-v 3Eh MPC        2003          2008 VB4           20081106
K08V04Q 19.3   0.15 K102D 140.79493  232.51765  256.45332   11.58369  0.3322954  0.42583068   1.7497584  3 MPO152521    50   1  119 days 0.42 M-v 38h MPC        2004          2008 VQ4           20090118
K08V04R 23.0   0.15 K102D 243.47088  235.38235   37.06910    4.19029  0.3875939  1.11336437   0.9219581  8 MPO149146    20   1   23 days 0.62 M-v 3Eh MPC        2002          2008 VR4           20081130
K08V04T 22.4   0.15 K102D 301.43048  137.57839  224.38898   21.17176  0.0991702  0.58003669   1.4239642  9 MPO147611    10   1    2 days 0.35 M-v 38h MPC        2004          2008 VT4           20081107
K08V04U 17.6   0.15 K102D 141.18535   23.21475  291.13867   11.99393  0.7707225  0.26874179   2.3781865  4 MPO152521   165   1   71 days 0.35 M-v 3Eh MPC        2003          2008 VU4           20090117
K08V14G 20.3   0.15 K102D 105.05222  112.82849  260.25296   10.04570  0.5578372  0.20883357   2.8136442  4 MPO151105    65   1   53 days 0.48 M-v 38h MPC        2004          2008 VG14          20081230
K08V14H 23.6   0.15 K102D  84.29391  255.24071  206.48479    1.42962  0.6455236  0.20487045   2.8498139  5 MPO151105    47   1   52 days 0.44 M-v 3Eh MPC        2004          2008 VH14          20081230
K08V14K 19.4   0.15 K102D 264.57521   29.90497  308.26890    6.91596  0.5057666  0.51471274   1.5420298  5 MPO152522   194   1   57 days 0.34 M-v 3Eh MPC        2003          2008 VK14          20090104
K08V14L 21.1   0.15 K102D 159.33469  243.84329   39.99972    1.94981  0.8174401  0.30006459   2.2096639  6 MPO149147    55   1   22 days 0.38 M-v 3Eh MPC        A003          2008 VL14          20081201
K08V15A 23.6   0.15 K102D 248.10260   96.42960  335.38978    1.82235  0.3046563  0.56342190   1.4518226  5 MPO152522    36   1   86 days 0.49 M-v 3Eh MPC        2004          2008 VA15          20090202
K08W00B 21.2   0.15 K102D 282.67997  164.64827  236.90176   44.29400  0.0951600  0.60474752   1.3849050  6 MPO149151    52   1   15 days 0.46 M-v 38h MPC        2004          2008 WB            20081202
K08W00C 26.5   0.15 K102D 178.70109  219.00296  238.94920    2.22427  0.4582813  0.42824649   1.7431717  5 MPO149151    65   1    8 days 0.56 M-v 3Eh MPC        2003          2008 WC            20081126
K08W00D 25.9   0.15 K102D 109.39569  225.20671  231.92129    2.21285  0.6162325  0.26046665   2.4282942  5 MPO149151    65   1    7 days 0.52 M-v 3Eh MPC        2003          2008 WD            20081125
K08W00E 25.9   0.15 K102D 130.20424  340.13453   66.08920    1.03124  0.5574636  0.28300561   2.2975908  7 MPO149151    33   1    5 days 0.56 M-v 3Eh MPC        2004          2008 WE            20081123
K08W00K 23.2   0.15 K102D 245.70087   28.98383   61.78741    6.33956  0.2815309  0.58414333   1.4172825  4 MPO156148   116   1  124 days 0.37 M-v 3Eh MPC        2004          2008 WK            20090322
K08W00L 21.8   0.15 K102D 104.02949  109.85122  277.30474    6.70143  0.6433511  0.21844104   2.7305275  5 MPO152523    76   1   59 days 0.38 M-v 3Eh MPC        2003          2008 WL            20090116
K08W00M 26.8   0.15 K102D 329.71793   84.89158   57.67288   12.30379  0.1408230  0.88605339   1.0735677  9 MPO149152    10   1    0 days 0.49 M-v 3Eh MPC        2003          2008 WM            20081119
K08W01P 20.4   0.15 K102D 135.59802  330.74955   71.47551    7.55379  0.4308694  0.29778110   2.2209458  5 MPO152523    42   1   58 days 0.54 M-v 38h MPC        2004          2008 WP1           20090116
K08W01Q 21.6   0.15 K102D 130.92623  159.63279  230.82472   33.59460  0.5477635  0.27920481   2.3183951  7 MPO149152    17   1    6 days 0.82 M-v 3Eh MPC        2004          2008 WQ1           20081125
K08W02N 20.8   0.15 K102D 207.10319  283.23437  227.21078    3.74569  0.3118647  0.58374117   1.4179334  3 MPO158628   207   1  208 days 0.44 M-v 3Eh MPC        A003          2008 WN2           20090519
K08W02O 29.8   0.15 K102D 139.70707   85.67973  238.17234    2.00964  0.1881952  0.94955147   1.0251570  7 MPO149152    27   1    2 days 0.48 M-v 3Eh MPC        2003          2008 WO2           20081122
K08W02P 25.0   0.15 K102D 222.79707   37.95767   57.66804   14.87796  0.3501823  0.53449696   1.5037393  7 MPO149152    41   1    3 days 0.48 M-v 3Eh MPC        2003          2008 WP2           20081123
K08W02Q 24.3   0.15 K102D  21.85206    8.28505  234.00954   13.47395  0.2047476  1.26573510   0.8463971  8 MPO149152    21   1    2 days 0.61 M-v 3Eh MPC        2002          2008 WQ2           20081122
K08W13Y 21.6   0.15 K102D 139.18453   70.86068  238.96817   15.63150  0.7356587  0.26312291   2.4119239  7 MPO149154    40   1   12 days 0.50 M-v 3Eh MPC        2003          2008 WY13          20081202
K08W13Z 18.7   0.15 K102D  94.38253  133.09233   52.29359    8.14307  0.5598474  0.34872293   1.9990134  3 MPO156148    91   1  117 days 0.32 M-v 3Eh MPC        A003          2008 WZ13          20090317
K08W14A 23.0   0.15 K102D 262.27101   84.32159   71.67864   13.01939  0.4282793  0.69405414   1.2633989  7 MPO149154    45   1   15 days 0.46 M-v 3Eh MPC        2003          2008 WA14          20081205
K08W14B 25.5   0.15 K102D 116.60512  170.86910  238.36483    8.47642  0.5811125  0.25527156   2.4611293  7 MPO149154    30   1    7 days 0.45 M-v 3Eh MPC        2004          2008 WB14          20081127
K08W14C 20.0   0.15 K102D  76.67841   16.03708   55.61752   21.01131  0.6553526  0.17071102   3.2183135  3 MPO156148    61   1  120 days 0.47 M-v 38h MPC        2004          2008 WC14          20090320
K08W14D 22.9   0.15 K102D 135.66502  167.41797  235.88077    5.60318  0.5627239  0.29574321   2.2311368  5 MPO152524    71   1   60 days 0.45 M-v 3Eh MPC        2003          2008 WD14          20090120
K08W14E 25.4   0.15 K102D 226.95091  324.13155   59.06272   13.99229  0.3882790  0.47247747   1.6326082  9 MPO149154    13   1    0 days 0.24 M-v 3Eh MPC        2003          2008 WE14          20081121
K08W14F 24.9   0.15 K102D 243.05100  157.83068  239.20829    6.85988  0.3042085  0.51575006   1.5399615  5 MPO151109    33   1   30 days 0.36 M-v 3Eh MPC        2004          2008 WF14          20081221
K08W14G 24.8   0.15 K102D 182.15227   63.66836   65.52464    4.46188  0.4869133  0.46178662   1.6577097  6 MPO151109    67   1   16 days 0.34 M-v 3Eh MPC        2003          2008 WG14          20081207
K08W14H 26.3   0.15 K102D 272.73108  351.32829   61.74586    6.56774  0.2561684  0.59997940   1.3922327  8 MPO149155    16   1    0 days 0.50 M-v 3Eh MPC        2004          2008 WH14          20081121
K08W14J 26.3   0.15 K102D  58.44648  179.07809  237.29308   11.00739  0.7297474  0.12960779   3.8670694  9 MPO149155    12   1    0 days 0.64 M-v 3Eh MPC        2004          2008 WJ14          20081121
